{"type":"FeatureCollection","features":[{"type":"Feature","properties":{"id":"jerusalem"},"geometry":{"type":"Polygon","coordinates":[[[35.09797209302325,31.824481395348837],[35.11353355426678,31.85284341342171],[35.25252543068089,31.854459598031173],[35.26074064171123,31.679886363636363],[35.1749499777679,31.720398621609604],[35.09797209302325,31.824481395348837]]]}},{"type":"Feature","properties":{"id":"tel_aviv"},"geometry":{"type":"Polygon","coordinates":[[[34.61175348292448,32.27057348045862],[34.813689476412655,32.12742897874546],[34.81035331230284,32.08906309148265],[34.791809786354236,32.048703652653344],[34.77405660377359,32.05215566037736],[34.55062684563759,32.177834899328865],[34.57,32.22],[34.594549394143385,32.27555915516661],[34.61175348292448,32.27057348045862]]]}},{"type":"Feature","properties":{"id":"haifa"},"geometry":{"type":"Polygon","coordinates":[[[34.79426363369102,32.72787189475231],[34.87,32.9],[34.88507692307692,32.97538461538462],[35.16034038249356,32.78401097217114],[35.1141821964405,32.666692249286285],[34.79426363369102,32.72787189475231]]]}},{"type":"Feature","properties":{"id":"beer_sheva"},"geometry":{"type":"Polygon","coordinates":[[[34.91260500121388,31.440195605729546],[35.02631953440345,31.307799399230262],[34.732288817314114,30.928404925566596],[34.34922479046924,30.92187205069017],[34.766124374897984,31.428642204217304],[34.91260500121388,31.440195605729546]]]}},{"type":"Feature","properties":{"id":"eilat"},"geometry":{"type":"Polygon","coordinates":[[[35.025893800938505,30.103575203754012],[35.0,30.0],[34.9,29.5],[34.2,29.5],[34.2,29.987839847473786],[35.025893800938505,30.103575203754012]]]}},{"type":"Feature","properties":{"id":"netanya"},"geometry":{"type":"Polygon","coordinates":[[[35.02638219730377,32.233107030364124],[34.61175348292448,32.27057348045862],[34.594549394143385,32.27555915516661],[34.70577269670478,32.527275050437126],[35.122454734585794,32.364839679737734],[35.02638219730377,32.233107030364124]]]}},{"type":"Feature","properties":{"id":"ashdod"},"geometry":{"type":"Polygon","coordinates":[[[34.69103802471885,31.916657220799465],[34.77994823316288,31.751679389575546],[34.68471647242151,31.694153605168328],[34.39905307994757,31.84526539973788],[34.4,31.85],[34.47836756702277,32.02056470469663],[34.69103802471885,31.916657220799465]]]}},{"type":"Feature","properties":{"id":"rishon_lezion"},"geometry":{"type":"Polygon","coordinates":[[[34.8479953358209,31.93242817164179],[34.697146234676,31.919498248686512],[34.74012009237875,31.958830254041573],[34.82875567530383,32.01444473744554],[34.8587095002474,32.00907565561603],[34.8479953358209,31.93242817164179]]]}},{"type":"Feature","properties":{"id":"petah_tikva"},"geometry":{"type":"Polygon","coordinates":[[[35.02316565900846,32.21630955259975],[35.0331934011934,32.03831712881713],[35.01268583690988,32.02780042918456],[34.87221072796935,32.01747137705657],[34.86284756995582,32.05272091310751],[34.857800773480655,32.12211436464088],[35.02316565900846,32.21630955259975]]]}},{"type":"Feature","properties":{"id":"ashkelon"},"geometry":{"type":"Polygon","coordinates":[[[34.68471647242151,31.694153605168328],[34.65898568290578,31.610419510473054],[34.31510769230769,31.53776923076923],[34.36,31.65],[34.39905307994757,31.84526539973788],[34.68471647242151,31.694153605168328]]]}},{"type":"Feature","properties":{"id":"nahariya"},"geometry":{"type":"Polygon","coordinates":[[[35.184223468028414,32.929417295737125],[34.89561137440758,33.028056872037915],[34.9,33.05],[34.95,33.1],[35.1,33.1],[35.28017291066283,33.154051873198846],[35.184223468028414,32.929417295737125]]]}},{"type":"Feature","properties":{"id":"carmiel"},"geometry":{"type":"Polygon","coordinates":[[[35.18092666504913,32.80523771685066],[35.184223468028414,32.929417295737125],[35.28017291066283,33.154051873198846],[35.323098611111114,33.166929583333335],[35.35202707076008,33.139696929939646],[35.41606214974221,32.85989147612643],[35.39013769751693,32.810969525959365],[35.18092666504913,32.80523771685066]]]}},{"type":"Feature","properties":{"id":"holon"},"geometry":{"type":"Polygon","coordinates":[[[34.82875567530383,32.01444473744554],[34.74012009237875,31.958830254041573],[34.77405660377359,32.05215566037736],[34.791809786354236,32.048703652653344],[34.82875567530383,32.01444473744554]]]}},{"type":"Feature","properties":{"id":"bat_yam"},"geometry":{"type":"Polygon","coordinates":[[[34.47836756702277,32.02056470469663],[34.55062684563759,32.177834899328865],[34.77405660377359,32.05215566037736],[34.74012009237875,31.958830254041573],[34.697146234676,31.919498248686512],[34.69103802471885,31.916657220799465],[34.47836756702277,32.02056470469663]]]}},{"type":"Feature","properties":{"id":"bnei_brak"},"geometry":{"type":"Polygon","coordinates":[[[34.857800773480655,32.12211436464088],[34.86284756995582,32.05272091310751],[34.81035331230284,32.08906309148265],[34.813689476412655,32.12742897874546],[34.857800773480655,32.12211436464088]]]}},{"type":"Feature","properties":{"id":"ramat_gan"},"geometry":{"type":"Polygon","coordinates":[[[34.86284756995582,32.05272091310751],[34.87221072796935,32.01747137705657],[34.8587095002474,32.00907565561603],[34.82875567530383,32.01444473744554],[34.791809786354236,32.048703652653344],[34.81035331230284,32.08906309148265],[34.86284756995582,32.05272091310751]]]}},{"type":"Feature","properties":{"id":"lod"},"geometry":{"type":"Polygon","coordinates":[[[35.01268583690988,32.02780042918456],[34.89906474714996,31.854480122771122],[34.8479953358209,31.93242817164179],[34.8587095002474,32.00907565561603],[34.87221072796935,32.01747137705657],[35.01268583690988,32.02780042918456]]]}},{"type":"Feature","properties":{"id":"kiryat_gat"},"geometry":{"type":"Polygon","coordinates":[[[34.65898568290578,31.610419510473054],[34.68471647242151,31.694153605168328],[34.77994823316288,31.751679389575546],[34.83696587431137,31.742143338094266],[34.940378684497816,31.571287390829696],[34.91260500121388,31.440195605729546],[34.766124374897984,31.428642204217304],[34.73934872261628,31.453566348628463],[34.65898568290578,31.610419510473054]]]}},{"type":"Feature","properties":{"id":"beit_shemesh"},"geometry":{"type":"Polygon","coordinates":[[[35.09214210526316,31.820594736842107],[35.014484002285386,31.615124339380092],[34.940378684497816,31.571287390829696],[34.83696587431137,31.742143338094266],[34.89863723907277,31.81664565794026],[35.09214210526316,31.820594736842107]]]}},{"type":"Feature","properties":{"id":"modiin"},"geometry":{"type":"Polygon","coordinates":[[[35.0331934011934,32.03831712881713],[35.0831184429642,31.994780599500412],[35.11353355426678,31.85284341342171],[35.09797209302325,31.824481395348837],[35.09214210526316,31.820594736842107],[34.89863723907277,31.81664565794026],[34.89906474714996,31.854480122771122],[35.01268583690988,32.02780042918456],[35.0331934011934,32.03831712881713]]]}},{"type":"Feature","properties":{"id":"tiberias"},"geometry":{"type":"Polygon","coordinates":[[[35.41606214974221,32.85989147612643],[35.534942413693074,32.8829682332463],[35.62908968113374,32.87979472984942],[35.9900538635507,32.59425589898228],[35.455251722072475,32.65469586702606],[35.39013769751693,32.810969525959365],[35.41606214974221,32.85989147612643]]]}},{"type":"Feature","properties":{"id":"nazareth"},"geometry":{"type":"Polygon","coordinates":[[[35.455251722072475,32.65469586702606],[35.20906694991902,32.41101043266096],[35.1141821964405,32.666692249286285],[35.16034038249356,32.78401097217114],[35.18092666504913,32.80523771685066],[35.39013769751693,32.810969525959365],[35.455251722072475,32.65469586702606]]]}},{"type":"Feature","properties":{"id":"akko"},"geometry":{"type":"Polygon","coordinates":[[[35.16034038249356,32.78401097217114],[34.88507692307692,32.97538461538462],[34.89561137440758,33.028056872037915],[35.184223468028414,32.929417295737125],[35.18092666504913,32.80523771685066],[35.16034038249356,32.78401097217114]]]}},{"type":"Feature","properties":{"id":"kiryat_shmona"},"geometry":{"type":"Polygon","coordinates":[[[35.59843473648477,33.083716752949165],[35.49067225950782,33.09878523489933],[35.35202707076008,33.139696929939646],[35.323098611111114,33.166929583333335],[35.6,33.25],[35.89358750000001,33.25],[35.59843473648477,33.083716752949165]]]}},{"type":"Feature","properties":{"id":"safed"},"geometry":{"type":"Polygon","coordinates":[[[35.35202707076008,33.139696929939646],[35.49067225950782,33.09878523489933],[35.534942413693074,32.8829682332463],[35.41606214974221,32.85989147612643],[35.35202707076008,33.139696929939646]]]}},{"type":"Feature","properties":{"id":"beit_shean"},"geometry":{"type":"Polygon","coordinates":[[[36.05,32.570909736308316],[36.05,32.5],[35.6,32.5],[35.6,32.09632028469752],[35.56645557034935,32.11339093750906],[35.20845097181973,32.40589594783651],[35.20906694991902,32.41101043266096],[35.455251722072475,32.65469586702606],[35.9900538635507,32.59425589898228],[36.05,32.570909736308316]]]}},{"type":"Feature","properties":{"id":"zichron_yaakov"},"geometry":{"type":"Polygon","coordinates":[[[35.1141821964405,32.666692249286285],[35.20906694991902,32.41101043266096],[35.20845097181973,32.40589594783651],[35.122454734585794,32.364839679737734],[34.70577269670478,32.527275050437126],[34.76,32.65],[34.79426363369102,32.72787189475231],[35.1141821964405,32.666692249286285]]]}},{"type":"Feature","properties":{"id":"rosh_pina"},"geometry":{"type":"Polygon","coordinates":[[[35.534942413693074,32.8829682332463],[35.49067225950782,33.09878523489933],[35.59843473648477,33.083716752949165],[35.62908968113374,32.87979472984942],[35.534942413693074,32.8829682332463]]]}},{"type":"Feature","properties":{"id":"rehovot"},"geometry":{"type":"Polygon","coordinates":[[[34.89863723907277,31.81664565794026],[34.83696587431137,31.742143338094266],[34.77994823316288,31.751679389575546],[34.69103802471885,31.916657220799465],[34.697146234676,31.919498248686512],[34.8479953358209,31.93242817164179],[34.89906474714996,31.854480122771122],[34.89863723907277,31.81664565794026]]]}},{"type":"Feature","properties":{"id":"herzliya"},"geometry":{"type":"Polygon","coordinates":[[[34.61175348292448,32.27057348045862],[35.02638219730377,32.233107030364124],[35.02316565900846,32.21630955259975],[34.857800773480655,32.12211436464088],[34.813689476412655,32.12742897874546],[34.61175348292448,32.27057348045862]]]}},{"type":"Feature","properties":{"id":"dimona"},"geometry":{"type":"Polygon","coordinates":[[[34.732288817314114,30.928404925566596],[35.02631953440345,31.307799399230262],[35.6,31.20192703862661],[35.6,31.2],[35.55,31.0],[35.2,30.8],[35.176674092009684,30.706696368038738],[34.732288817314114,30.928404925566596]]]}},{"type":"Feature","properties":{"id":"sderot"},"geometry":{"type":"Polygon","coordinates":[[[34.65898568290578,31.610419510473054],[34.73934872261628,31.453566348628463],[34.30303448275862,31.507586206896548],[34.31510769230769,31.53776923076923],[34.65898568290578,31.610419510473054]]]}},{"type":"Feature","properties":{"id":"mitzpe_ramon"},"geometry":{"type":"Polygon","coordinates":[[[34.732288817314114,30.928404925566596],[35.176674092009684,30.706696368038738],[35.025893800938505,30.103575203754012],[34.2,29.987839847473786],[34.2,30.5],[34.2392899064002,30.892899064002023],[34.34922479046924,30.92187205069017],[34.732288817314114,30.928404925566596]]]}},{"type":"Feature","properties":{"id":"netivot"},"geometry":{"type":"Polygon","coordinates":[[[34.73934872261628,31.453566348628463],[34.766124374897984,31.428642204217304],[34.34922479046924,30.92187205069017],[34.2392899064002,30.892899064002023],[34.25,31.0],[34.26,31.12],[34.23,31.22],[34.22,31.35],[34.3,31.5],[34.30303448275862,31.507586206896548],[34.73934872261628,31.453566348628463]]]}},{"type":"Feature","properties":{"id":"ariel"},"geometry":{"type":"Polygon","coordinates":[[[35.20845097181973,32.40589594783651],[35.56645557034935,32.11339093750906],[35.0831184429642,31.994780599500412],[35.0331934011934,32.03831712881713],[35.02316565900846,32.21630955259975],[35.02638219730377,32.233107030364124],[35.122454734585794,32.364839679737734],[35.20845097181973,32.40589594783651]]]}},{"type":"Feature","properties":{"id":"maale_adumim"},"geometry":{"type":"Polygon","coordinates":[[[35.4096187989556,31.49910574412533],[35.26074064171123,31.679886363636363],[35.25252543068089,31.854459598031173],[35.6,32.03440178571427],[35.6,32.0],[35.6,31.72],[35.6,31.5],[35.6,31.35473333333332],[35.4096187989556,31.49910574412533]]]}},{"type":"Feature","properties":{"id":"beitar_illit"},"geometry":{"type":"Polygon","coordinates":[[[35.08802465826856,31.614678638434736],[35.014484002285386,31.615124339380092],[35.09214210526316,31.820594736842107],[35.09797209302325,31.824481395348837],[35.1749499777679,31.720398621609604],[35.08802465826856,31.614678638434736]]]}},{"type":"Feature","properties":{"id":"efrat"},"geometry":{"type":"Polygon","coordinates":[[[35.26074064171123,31.679886363636363],[35.4096187989556,31.49910574412533],[35.08802465826856,31.614678638434736],[35.1749499777679,31.720398621609604],[35.26074064171123,31.679886363636363]]]}},{"type":"Feature","properties":{"id":"kiryat_arba"},"geometry":{"type":"Polygon","coordinates":[[[35.02631953440345,31.307799399230262],[34.91260500121388,31.440195605729546],[34.940378684497816,31.571287390829696],[35.014484002285386,31.615124339380092],[35.08802465826856,31.614678638434736],[35.4096187989556,31.49910574412533],[35.6,31.35473333333332],[35.6,31.20192703862661],[35.02631953440345,31.307799399230262]]]}},{"type":"Feature","properties":{"id":"beit_el"},"geometry":{"type":"Polygon","coordinates":[[[35.25252543068089,31.854459598031173],[35.11353355426678,31.85284341342171],[35.0831184429642,31.994780599500412],[35.56645557034935,32.11339093750906],[35.6,32.09632028469752],[35.6,32.03440178571427],[35.25252543068089,31.854459598031173]]]}},{"type":"Feature","properties":{"id":"katzrin"},"geometry":{"type":"Polygon","coordinates":[[[35.59843473648477,33.083716752949165],[35.89358750000001,33.25],[36.05,33.25],[36.05,32.570909736308316],[35.9900538635507,32.59425589898228],[35.62908968113374,32.87979472984942],[35.59843473648477,33.083716752949165]]]}}]}