{
  "type": "FeatureCollection",
  "features": [
    {
      "type": "Feature",
      "properties": { "name": "Israel" },
      "geometry": {
        "type": "Polygon",
        "coordinates": [[
          [35.09, 33.08],
          [35.04, 33.00],
          [34.95, 32.82],
          [34.87, 32.55],
          [34.83, 32.33],
          [34.73, 32.08],
          [34.58, 31.97],
          [34.50, 31.79],
          [34.49, 31.67],
          [34.35, 31.63],
          [34.25, 31.60],
          [34.21, 31.55],
          [34.19, 31.40],
          [34.21, 31.22],
          [34.22, 31.07],
          [34.89, 29.49],
          [34.94, 29.52],
          [34.95, 29.56],
          [34.97, 29.73],
          [35.05, 30.18],
          [35.19, 30.55],
          [35.40, 30.95],
          [35.52, 31.30],
          [35.55, 31.60],
          [35.57, 31.82],
          [35.57, 32.00],
          [35.61, 32.20],
          [35.65, 32.46],
          [35.76, 32.68],
          [35.80, 32.75],
          [35.84, 32.93],
          [35.84, 33.08],
          [35.78, 33.24],
          [35.63, 33.29],
          [35.55, 33.23],
          [35.40, 33.18],
          [35.24, 33.12],
          [35.09, 33.08]
        ]]
      }
    }
  ]
}
