{
  "type": "FeatureCollection",
  "features": [
    {
      "type": "Feature",
      "properties": { "id": "north" },
      "geometry": {
        "type": "Polygon",
        "coordinates": [
          [[34.45, 32.50], [35.60, 32.50], [35.60, 33.25], [34.45, 33.25], [34.45, 32.50]]
        ]
      }
    },
    {
      "type": "Feature",
      "properties": { "id": "golan" },
      "geometry": {
        "type": "Polygon",
        "coordinates": [
          [[35.60, 32.50], [36.05, 32.50], [36.05, 33.25], [35.60, 33.25], [35.60, 32.50]]
        ]
      }
    },
    {
      "type": "Feature",
      "properties": { "id": "center" },
      "geometry": {
        "type": "Polygon",
        "coordinates": [
          [[34.45, 31.85], [35.10, 31.85], [35.10, 32.50], [34.45, 32.50], [34.45, 31.85]]
        ]
      }
    },
    {
      "type": "Feature",
      "properties": { "id": "jerusalem" },
      "geometry": {
        "type": "Polygon",
        "coordinates": [
          [[35.05, 31.72], [35.28, 31.72], [35.28, 31.85], [35.05, 31.85], [35.05, 31.72]]
        ]
      }
    },
    {
      "type": "Feature",
      "properties": { "id": "judea_samaria" },
      "geometry": {
        "type": "MultiPolygon",
        "coordinates": [
          [[[35.05, 31.40], [35.60, 31.40], [35.60, 31.72], [35.05, 31.72], [35.05, 31.40]]],
          [[[35.28, 31.72], [35.60, 31.72], [35.60, 31.85], [35.28, 31.85], [35.28, 31.72]]],
          [[[35.10, 31.85], [35.60, 31.85], [35.60, 32.50], [35.10, 32.50], [35.10, 31.85]]]
        ]
      }
    },
    {
      "type": "Feature",
      "properties": { "id": "south" },
      "geometry": {
        "type": "Polygon",
        "coordinates": [
          [[34.20, 29.40], [35.05, 29.40], [35.05, 31.85], [34.20, 31.85], [34.20, 29.40]]
        ]
      }
    }
  ]
}
